CUTE-1 (CO-55)          
1 27844U 03031E   26129.75168404  .00000222  00000+0  11498-3 0  9998
2 27844  98.6748 138.7930 0008440 301.1656  58.8695 14.24311593186209
CUBESAT XI-IV (CO-57)   
1 27848U 03031J   26129.43977631  .00000198  00000+0  10632-3 0  9998
2 27848  98.6780 138.2288 0008652 322.9503  37.1078 14.23599872185860
CUBESAT XI-V            
1 28895U 05043F   26129.67175536  .00000988  00000+0  16370-3 0  9998
2 28895  98.2944 284.4970 0013339 332.3526  27.6970 14.72529629 96088
CUTE-1.7+APD II (CO-65) 
1 32785U 08021C   26129.86142697  .00003241  00000+0  20854-3 0  9990
2 32785  97.8265 110.4999 0009870 148.9599 211.2214 15.09089607979414
CANX-2                  
1 32790U 08021H   26129.73793789  .00002653  00000+0  18960-3 0  9997
2 32790  97.8630 108.7832 0010800 164.1457 196.0109 15.05345710979026
SEEDS II (CO-66)        
1 32791U 08021J   26129.73091919  .00013331  00000+0  44126-3 0  9992
2 32791  97.7531 125.8363 0005087  90.8822 269.3001 15.31444489981409
SWISSCUBE               
1 35932U 09051B   26129.71703875  .00000729  00000+0  15388-3 0  9990
2 35932  98.4059  36.9334 0006435 344.6370  15.4635 14.62406167883530
BEESAT-1                
1 35933U 09051C   26129.70661935  .00000613  00000+0  13314-3 0  9999
2 35933  98.3987  36.6382 0005285   2.2534 357.8689 14.61656665883565
ITUPSAT1                
1 35935U 09051E   26129.66389669  .00000561  00000+0  12595-3 0  9999
2 35935  98.4072  35.8272 0007696   8.7174 351.4158 14.60381705883112
TISAT 1                 
1 36799U 10035E   26129.81530306  .00013582  00000+0  46645-3 0  9995
2 36799  98.0691  73.0133 0003805  59.1420 301.0192 15.30261123861839
AEROCUBE 4.5A           
1 38767U 12048K   26129.53318730  .00119503  00000+0  71333-3 0  9994
2 38767  64.6299 166.0390 0019764 216.7760 143.2038 15.77033795366531
STRAND-1                
1 39090U 13009E   26129.76373308  .00000204  00000+0  83094-4 0  9994
2 39090  98.3917 310.9457 0008406 354.4448   5.6645 14.37140292691543
BRITE-AUSTRIA           
1 39091U 13009F   26129.76012483  .00000124  00000+0  56901-4 0  9997
2 39091  98.3988 310.1488 0010146   2.1407 357.9821 14.36526558691534
NEE-01 PEGASO           
1 39151U 13018B   26129.81029541  .00002331  00000+0  22723-3 0  9999
2 39151  98.1173 272.7094 0011246 292.3669  67.6357 14.93472458704970
POPACS 2                
1 39269U 13055E   26129.58198116  .00012332  00000+0  21154-3 0  9998
2 39269  80.9921 188.3558 0419722 317.9707  38.9991 14.90341849657467
POPACS 3                
1 39270U 13055F   26129.83167110  .00011812  00000+0  28300-3 0  9990
2 39270  81.0007 270.7435 0555005 186.6350 172.7290 14.55178161632970
ZACUBE-1 (TSHEPISOSAT)  
1 39417U 13066B   26129.87672515  .00003496  00000+0  27449-3 0  9991
2 39417  97.8123  92.0065 0042321  22.1026 338.2010 15.00890447674982
WNISAT-1                
1 39423U 13066H   26129.36866382  .00000396  00000+0  81055-4 0  9999
2 39423  97.7155 281.2912 0162971 354.6923   5.2543 14.58015227661074
TRITON-1                
1 39427U 13066M   26129.86841632  .00002470  00000+0  30012-3 0  9990
2 39427  97.8262  40.5489 0090406   0.3374 359.7884 14.81537458668412
GOMX-1                  
1 39430U 13066Q   26129.84681088  .00001455  00000+0  22516-3 0  9991
2 39430  97.6511 332.7266 0128237 200.0586 159.5555 14.69310094664281
CUBEBUG-2 (LO-74)       
1 39440U 13066AA  26129.80982279  .00002857  00000+0  26829-3 0  9992
2 39440  97.8887  78.6418 0058669 153.0815 207.3469 14.93478578671269
NEE-02 KRYSAOR          
1 39441U 13066AB  26129.77406580  .00001143  00000+0  13074-3 0  9990
2 39441  97.8877  69.2722 0065773 194.4308 165.5031 14.86476736670493
FUNCUBE-1 (AO-73)       
1 39444U 13066AE  26129.66847316  .00006551  00000+0  41264-3 0  9997
2 39444  97.8256 100.3309 0035822 337.5791  22.3869 15.08986896673853
UWE-3                   
1 39446U 13066AG  26129.84493543  .00002373  00000+0  20769-3 0  9993
2 39446  97.8683  85.6781 0051128  87.4041 273.3032 14.96707857671845
BRITE-CA1 (TORONTO)     
1 40020U 14033L   26129.78452051  .00000573  00000+0  93665-4 0  9996
2 40020  97.9684 259.4340 0079508  40.7052 320.0060 14.72624071636566
DUCHIFAT-1              
1 40021U 14033M   26129.68490597  .00056579  00000+0  75320-3 0  9997
2 40021  98.0511 183.6649 0005561 195.4138 164.6947 15.57967095649749
NANOSATC-BR1            
1 40024U 14033Q   26129.63907073  .00011841  00000+0  40739-3 0  9996
2 40024  98.0758 158.6464 0002198 343.1492  16.9673 15.30245707648081
QB50P1                  
1 40025U 14033R   26129.78462659  .00006132  00000+0  30799-3 0  9991
2 40025  98.0987 138.2560 0008710   9.6383 350.5014 15.17664623647202
QB50P2                  
1 40032U 14033Y   26129.72352322  .00005542  00000+0  30351-3 0  9996
2 40032  98.0760 124.2274 0006055 316.4200  43.6551 15.14668279646846
PERSEUS-M2              
1 40037U 14033AD  26129.85708310  .00001186  00000+0  11280-3 0  9997
2 40037  97.9938  79.6274 0013085  68.5953 291.6662 14.95388810645058
